LEGION 1                
1 59625U 24081A   26188.74459501  .00002622  00000+0  13680-3 0  9994
2 59625  97.5009 266.3834 0007823 300.6268  59.4193 15.16811462120656
LEGION 2                
1 59626U 24081B   26188.77487236  .00002706  00000+0  14111-3 0  9997
2 59626  97.5010 266.5103 0009872 262.8374  97.1737 15.16789770120663
LEGION 3                
1 60452U 24146A   26188.75687951  .00002184  00000+0  12659-3 0  9997
2 60452  45.0020 280.2576 0008804 295.3787  64.6180 15.15624538105147
LEGION 4                
1 60453U 24146B   26188.75751888  .00002798  00000+0  15577-3 0  9992
2 60453  45.0022  12.1316 0011538  65.2528 294.9551 15.16201824103990
LEGION 5                
1 62900U 25025A   26188.49504525  .00002033  00000+0  11742-3 0  9995
2 62900  45.0000 192.5125 0008570 264.0805  95.9097 15.16042128 77573
LEGION 6                
1 62901U 25025B   26188.22870117  .00003190  00000+0  17835-3 0  9994
2 62901  45.0003 103.0634 0010548 236.2096 123.7779 15.15652297 78672
