{"fetched_at":"2026-07-08T07:04:04.361Z","source":"https://celestrak.org/NORAD/elements/gp.php?NAME=LEGION&FORMAT=JSON","constellation":"maxar-legion","records":[{"OBJECT_NAME":"LEGION 1","OBJECT_ID":"2024-081A","EPOCH":"2026-07-07T17:52:13.008864","CLASSIFICATION_TYPE":"U","MEAN_MOTION":15.16811462,"ECCENTRICITY":0.0007823,"INCLINATION":97.5009,"RA_OF_ASC_NODE":266.3834,"ARG_OF_PERICENTER":300.6268,"MEAN_ANOMALY":59.4193,"EPHEMERIS_TYPE":0,"NORAD_CAT_ID":59625,"ELEMENT_SET_NO":999,"REV_AT_EPOCH":12065,"BSTAR":0.0001368,"MEAN_MOTION_DOT":0.00002622,"MEAN_MOTION_DDOT":0},{"OBJECT_NAME":"LEGION 2","OBJECT_ID":"2024-081B","EPOCH":"2026-07-07T18:35:48.971904","CLASSIFICATION_TYPE":"U","MEAN_MOTION":15.1678977,"ECCENTRICITY":0.0009872,"INCLINATION":97.501,"RA_OF_ASC_NODE":266.5103,"ARG_OF_PERICENTER":262.8374,"MEAN_ANOMALY":97.1737,"EPHEMERIS_TYPE":0,"NORAD_CAT_ID":59626,"ELEMENT_SET_NO":999,"REV_AT_EPOCH":12066,"BSTAR":0.00014111,"MEAN_MOTION_DOT":0.00002706,"MEAN_MOTION_DDOT":0},{"OBJECT_NAME":"LEGION 3","OBJECT_ID":"2024-146A","EPOCH":"2026-07-07T18:09:54.389664","CLASSIFICATION_TYPE":"U","MEAN_MOTION":15.15624538,"ECCENTRICITY":0.0008804,"INCLINATION":45.002,"RA_OF_ASC_NODE":280.2576,"ARG_OF_PERICENTER":295.3787,"MEAN_ANOMALY":64.618,"EPHEMERIS_TYPE":0,"NORAD_CAT_ID":60452,"ELEMENT_SET_NO":999,"REV_AT_EPOCH":10514,"BSTAR":0.00012659,"MEAN_MOTION_DOT":0.00002184,"MEAN_MOTION_DDOT":0},{"OBJECT_NAME":"LEGION 4","OBJECT_ID":"2024-146B","EPOCH":"2026-07-07T18:10:49.631232","CLASSIFICATION_TYPE":"U","MEAN_MOTION":15.16201824,"ECCENTRICITY":0.0011538,"INCLINATION":45.0022,"RA_OF_ASC_NODE":12.1316,"ARG_OF_PERICENTER":65.2528,"MEAN_ANOMALY":294.9551,"EPHEMERIS_TYPE":0,"NORAD_CAT_ID":60453,"ELEMENT_SET_NO":999,"REV_AT_EPOCH":10399,"BSTAR":0.00015577,"MEAN_MOTION_DOT":0.00002798,"MEAN_MOTION_DDOT":0},{"OBJECT_NAME":"LEGION 5","OBJECT_ID":"2025-025A","EPOCH":"2026-07-07T11:52:51.909600","CLASSIFICATION_TYPE":"U","MEAN_MOTION":15.16042128,"ECCENTRICITY":0.00085709,"INCLINATION":45,"RA_OF_ASC_NODE":192.5125,"ARG_OF_PERICENTER":264.0805,"MEAN_ANOMALY":95.9097,"EPHEMERIS_TYPE":0,"NORAD_CAT_ID":62900,"ELEMENT_SET_NO":999,"REV_AT_EPOCH":7757,"BSTAR":0.00011741658,"MEAN_MOTION_DOT":0.00002033,"MEAN_MOTION_DDOT":0},{"OBJECT_NAME":"LEGION 6","OBJECT_ID":"2025-025B","EPOCH":"2026-07-07T05:29:19.781088","CLASSIFICATION_TYPE":"U","MEAN_MOTION":15.15652297,"ECCENTRICITY":0.00105484,"INCLINATION":45.0003,"RA_OF_ASC_NODE":103.0634,"ARG_OF_PERICENTER":236.2096,"MEAN_ANOMALY":123.7779,"EPHEMERIS_TYPE":0,"NORAD_CAT_ID":62901,"ELEMENT_SET_NO":999,"REV_AT_EPOCH":7867,"BSTAR":0.00017835102,"MEAN_MOTION_DOT":0.0000319,"MEAN_MOTION_DDOT":0}]}
